ION SCV-008             
1 55051U 23001AU  26068.82429008  .00008336  00000+0  31423-3 0  9992
2 55051  97.5676 163.6060 0015192   8.5420 351.6074 15.27226640176169
STARLINK-31125          
1 58678U 23211M   26068.10153354 -.00000078  00000+0  66634-5 0  9992
2 58678  43.0021  88.6818 0000687 254.9458 105.1318 15.27579104123548
